STARLINK-37078          
1 68174U 26050H   26085.31040104  .00175471  00000+0  87506-3 0  9996
2 68174  53.1598 198.4833 0000995  68.2290 291.8839 15.80861956  3108
STARLINK-36886          
1 68175U 26050J   26085.30964617  .00175876  00000+0  87740-3 0  9999
2 68175  53.1597 198.4783 0000976  78.4818 281.6314 15.80852516  3107
STARLINK-36905          
1 68176U 26050K   26085.30890000  .00188235  00000+0  93588-3 0  9994
2 68176  53.1596 198.4731 0001053  98.4083 261.7059 15.80889431  3104
STARLINK-36668          
1 68177U 26050L   26085.30814849  .00262004  00000+0  12897-2 0  9992
2 68177  53.1597 198.4672 0000991  94.2336 265.8800 15.80896006  3100
STARLINK-36677          
1 68178U 26050M   26085.30739707  .00211996  00000+0  10505-2 0  9990
2 68178  53.1593 198.4619 0000681  87.2919 272.8182 15.80892565  3100
STARLINK-37052          
1 68179U 26050N   26085.30664890  .00220948  00000+0  10932-2 0  9992
2 68179  53.1593 198.4581 0001068  83.9737 276.1407 15.80899571  3101
STARLINK-37035          
1 68180U 26050P   26085.30589909  .00139691  00000+0  70054-3 0  9997
2 68180  53.1596 198.4525 0000415  57.8643 302.2420 15.80852654  3102
STARLINK-37032          
1 68181U 26050Q   26085.30514898  .00162696  00000+0  81280-3 0  9997
2 68181  53.1594 198.4477 0000789  97.8486 262.2626 15.80862073  3109
STARLINK-37082          
1 68182U 26050R   26085.30439945  .00120782  00000+0  60651-3 0  9996
2 68182  53.1593 198.4427 0001370  70.8950 289.2221 15.80888726  3101
STARLINK-37102          
1 68183U 26050S   26085.30364846  .00157465  00000+0  78752-3 0  9993
2 68183  53.1596 198.4370 0000590 102.4503 257.6586 15.80854727  3108
STARLINK-36964          
1 68184U 26050T   26085.30289698  .00192328  00000+0  95638-3 0  9994
2 68184  53.1592 198.4322 0000447 103.3525 256.7547 15.80873590  3103
STARLINK-37061          
1 68185U 26050U   26085.30214820  .00160301  00000+0  79935-3 0  9998
2 68185  53.1593 198.4280 0001267  68.6740 291.4418 15.80909867  3101
