CCSDS_OMM_VERS = 2.0
CREATION_DATE  = 
ORIGINATOR     = 

OBJECT_NAME    = STARLINK-37078
OBJECT_ID      = 2026-050H
CENTER_NAME    = EARTH
REF_FRAME      = TEME
TIME_SYSTEM    = UTC
MEAN_ELEMENT_THEORY = SGP/SGP4

EPOCH          = 2026-03-26T07:26:58.649856
MEAN_MOTION    = 15.80861956
ECCENTRICITY   = .00009958
INCLINATION    = 53.1598
RA_OF_ASC_NODE = 198.4833
ARG_OF_PERICENTER = 68.2290
MEAN_ANOMALY   = 291.8839

EPHEMERIS_TYPE = 0
CLASSIFICATION_TYPE = U
NORAD_CAT_ID   = 68174
ELEMENT_SET_NO = 999
REV_AT_EPOCH   = 310
BSTAR          = .87505561E-3
MEAN_MOTION_DOT = .175471E-2
MEAN_MOTION_DDOT = 0

CCSDS_OMM_VERS = 2.0
CREATION_DATE  = 
ORIGINATOR     = 

OBJECT_NAME    = STARLINK-36886
OBJECT_ID      = 2026-050J
CENTER_NAME    = EARTH
REF_FRAME      = TEME
TIME_SYSTEM    = UTC
MEAN_ELEMENT_THEORY = SGP/SGP4

EPOCH          = 2026-03-26T07:25:53.429088
MEAN_MOTION    = 15.80852516
ECCENTRICITY   = .00009765
INCLINATION    = 53.1597
RA_OF_ASC_NODE = 198.4783
ARG_OF_PERICENTER = 78.4818
MEAN_ANOMALY   = 281.6314

EPHEMERIS_TYPE = 0
CLASSIFICATION_TYPE = U
NORAD_CAT_ID   = 68175
ELEMENT_SET_NO = 999
REV_AT_EPOCH   = 310
BSTAR          = .87740303E-3
MEAN_MOTION_DOT = .175876E-2
MEAN_MOTION_DDOT = 0

CCSDS_OMM_VERS = 2.0
CREATION_DATE  = 
ORIGINATOR     = 

OBJECT_NAME    = STARLINK-36905
OBJECT_ID      = 2026-050K
CENTER_NAME    = EARTH
REF_FRAME      = TEME
TIME_SYSTEM    = UTC
MEAN_ELEMENT_THEORY = SGP/SGP4

EPOCH          = 2026-03-26T07:24:48.960000
MEAN_MOTION    = 15.80889431
ECCENTRICITY   = .00010531
INCLINATION    = 53.1596
RA_OF_ASC_NODE = 198.4731
ARG_OF_PERICENTER = 98.4083
MEAN_ANOMALY   = 261.7059

EPHEMERIS_TYPE = 0
CLASSIFICATION_TYPE = U
NORAD_CAT_ID   = 68176
ELEMENT_SET_NO = 999
REV_AT_EPOCH   = 310
BSTAR          = .93587561E-3
MEAN_MOTION_DOT = .188235E-2
MEAN_MOTION_DDOT = 0

CCSDS_OMM_VERS = 2.0
CREATION_DATE  = 
ORIGINATOR     = 

OBJECT_NAME    = STARLINK-36668
OBJECT_ID      = 2026-050L
CENTER_NAME    = EARTH
REF_FRAME      = TEME
TIME_SYSTEM    = UTC
MEAN_ELEMENT_THEORY = SGP/SGP4

EPOCH          = 2026-03-26T07:23:44.029536
MEAN_MOTION    = 15.80896006
ECCENTRICITY   = .00009919
INCLINATION    = 53.1597
RA_OF_ASC_NODE = 198.4672
ARG_OF_PERICENTER = 94.2336
MEAN_ANOMALY   = 265.8800

EPHEMERIS_TYPE = 0
CLASSIFICATION_TYPE = U
NORAD_CAT_ID   = 68177
ELEMENT_SET_NO = 999
REV_AT_EPOCH   = 310
BSTAR          = .12897301E-2
MEAN_MOTION_DOT = .262004E-2
MEAN_MOTION_DDOT = 0

CCSDS_OMM_VERS = 2.0
CREATION_DATE  = 
ORIGINATOR     = 

OBJECT_NAME    = STARLINK-36677
OBJECT_ID      = 2026-050M
CENTER_NAME    = EARTH
REF_FRAME      = TEME
TIME_SYSTEM    = UTC
MEAN_ELEMENT_THEORY = SGP/SGP4

EPOCH          = 2026-03-26T07:22:39.106848
MEAN_MOTION    = 15.80892565
ECCENTRICITY   = .00006812
INCLINATION    = 53.1593
RA_OF_ASC_NODE = 198.4619
ARG_OF_PERICENTER = 87.2919
MEAN_ANOMALY   = 272.8182

EPHEMERIS_TYPE = 0
CLASSIFICATION_TYPE = U
NORAD_CAT_ID   = 68178
ELEMENT_SET_NO = 999
REV_AT_EPOCH   = 310
BSTAR          = .1050496E-2
MEAN_MOTION_DOT = .211996E-2
MEAN_MOTION_DDOT = 0

CCSDS_OMM_VERS = 2.0
CREATION_DATE  = 
ORIGINATOR     = 

OBJECT_NAME    = STARLINK-37052
OBJECT_ID      = 2026-050N
CENTER_NAME    = EARTH
REF_FRAME      = TEME
TIME_SYSTEM    = UTC
MEAN_ELEMENT_THEORY = SGP/SGP4

EPOCH          = 2026-03-26T07:21:34.464960
MEAN_MOTION    = 15.80899571
ECCENTRICITY   = .00010689
INCLINATION    = 53.1593
RA_OF_ASC_NODE = 198.4581
ARG_OF_PERICENTER = 83.9737
MEAN_ANOMALY   = 276.1407

EPHEMERIS_TYPE = 0
CLASSIFICATION_TYPE = U
NORAD_CAT_ID   = 68179
ELEMENT_SET_NO = 999
REV_AT_EPOCH   = 310
BSTAR          = .10932233E-2
MEAN_MOTION_DOT = .220948E-2
MEAN_MOTION_DDOT = 0

CCSDS_OMM_VERS = 2.0
CREATION_DATE  = 
ORIGINATOR     = 

OBJECT_NAME    = STARLINK-37035
OBJECT_ID      = 2026-050P
CENTER_NAME    = EARTH
REF_FRAME      = TEME
TIME_SYSTEM    = UTC
MEAN_ELEMENT_THEORY = SGP/SGP4

EPOCH          = 2026-03-26T07:20:29.681376
MEAN_MOTION    = 15.80852654
ECCENTRICITY   = .00004159
INCLINATION    = 53.1596
RA_OF_ASC_NODE = 198.4525
ARG_OF_PERICENTER = 57.8643
MEAN_ANOMALY   = 302.2420

EPHEMERIS_TYPE = 0
CLASSIFICATION_TYPE = U
NORAD_CAT_ID   = 68180
ELEMENT_SET_NO = 999
REV_AT_EPOCH   = 310
BSTAR          = .7005383E-3
MEAN_MOTION_DOT = .139691E-2
MEAN_MOTION_DDOT = 0

CCSDS_OMM_VERS = 2.0
CREATION_DATE  = 
ORIGINATOR     = 

OBJECT_NAME    = STARLINK-37032
OBJECT_ID      = 2026-050Q
CENTER_NAME    = EARTH
REF_FRAME      = TEME
TIME_SYSTEM    = UTC
MEAN_ELEMENT_THEORY = SGP/SGP4

EPOCH          = 2026-03-26T07:19:24.871872
MEAN_MOTION    = 15.80862073
ECCENTRICITY   = .00007892
INCLINATION    = 53.1594
RA_OF_ASC_NODE = 198.4477
ARG_OF_PERICENTER = 97.8486
MEAN_ANOMALY   = 262.2626

EPHEMERIS_TYPE = 0
CLASSIFICATION_TYPE = U
NORAD_CAT_ID   = 68181
ELEMENT_SET_NO = 999
REV_AT_EPOCH   = 310
BSTAR          = .81280386E-3
MEAN_MOTION_DOT = .162696E-2
MEAN_MOTION_DDOT = 0

CCSDS_OMM_VERS = 2.0
CREATION_DATE  = 
ORIGINATOR     = 

OBJECT_NAME    = STARLINK-37082
OBJECT_ID      = 2026-050R
CENTER_NAME    = EARTH
REF_FRAME      = TEME
TIME_SYSTEM    = UTC
MEAN_ELEMENT_THEORY = SGP/SGP4

EPOCH          = 2026-03-26T07:18:20.112480
MEAN_MOTION    = 15.80888726
ECCENTRICITY   = .00013703
INCLINATION    = 53.1593
RA_OF_ASC_NODE = 198.4427
ARG_OF_PERICENTER = 70.8950
MEAN_ANOMALY   = 289.2221

EPHEMERIS_TYPE = 0
CLASSIFICATION_TYPE = U
NORAD_CAT_ID   = 68182
ELEMENT_SET_NO = 999
REV_AT_EPOCH   = 310
BSTAR          = .60651277E-3
MEAN_MOTION_DOT = .120782E-2
MEAN_MOTION_DDOT = 0

CCSDS_OMM_VERS = 2.0
CREATION_DATE  = 
ORIGINATOR     = 

OBJECT_NAME    = STARLINK-37102
OBJECT_ID      = 2026-050S
CENTER_NAME    = EARTH
REF_FRAME      = TEME
TIME_SYSTEM    = UTC
MEAN_ELEMENT_THEORY = SGP/SGP4

EPOCH          = 2026-03-26T07:17:15.226944
MEAN_MOTION    = 15.80854727
ECCENTRICITY   = .00005908
INCLINATION    = 53.1596
RA_OF_ASC_NODE = 198.4370
ARG_OF_PERICENTER = 102.4503
MEAN_ANOMALY   = 257.6586

EPHEMERIS_TYPE = 0
CLASSIFICATION_TYPE = U
NORAD_CAT_ID   = 68183
ELEMENT_SET_NO = 999
REV_AT_EPOCH   = 310
BSTAR          = .78752302E-3
MEAN_MOTION_DOT = .157465E-2
MEAN_MOTION_DDOT = 0

CCSDS_OMM_VERS = 2.0
CREATION_DATE  = 
ORIGINATOR     = 

OBJECT_NAME    = STARLINK-36964
OBJECT_ID      = 2026-050T
CENTER_NAME    = EARTH
REF_FRAME      = TEME
TIME_SYSTEM    = UTC
MEAN_ELEMENT_THEORY = SGP/SGP4

EPOCH          = 2026-03-26T07:16:10.299072
MEAN_MOTION    = 15.80873590
ECCENTRICITY   = .0000447
INCLINATION    = 53.1592
RA_OF_ASC_NODE = 198.4322
ARG_OF_PERICENTER = 103.3525
MEAN_ANOMALY   = 256.7547

EPHEMERIS_TYPE = 0
CLASSIFICATION_TYPE = U
NORAD_CAT_ID   = 68184
ELEMENT_SET_NO = 999
REV_AT_EPOCH   = 310
BSTAR          = .95637529E-3
MEAN_MOTION_DOT = .192328E-2
MEAN_MOTION_DDOT = 0

CCSDS_OMM_VERS = 2.0
CREATION_DATE  = 
ORIGINATOR     = 

OBJECT_NAME    = STARLINK-37061
OBJECT_ID      = 2026-050U
CENTER_NAME    = EARTH
REF_FRAME      = TEME
TIME_SYSTEM    = UTC
MEAN_ELEMENT_THEORY = SGP/SGP4

EPOCH          = 2026-03-26T07:15:05.604480
MEAN_MOTION    = 15.80909867
ECCENTRICITY   = .0001267
INCLINATION    = 53.1593
RA_OF_ASC_NODE = 198.4280
ARG_OF_PERICENTER = 68.6740
MEAN_ANOMALY   = 291.4418

EPHEMERIS_TYPE = 0
CLASSIFICATION_TYPE = U
NORAD_CAT_ID   = 68185
ELEMENT_SET_NO = 999
REV_AT_EPOCH   = 310
BSTAR          = .79935252E-3
MEAN_MOTION_DOT = .160301E-2
MEAN_MOTION_DDOT = 0

